{
  "type": "FeatureCollection",
  "features": [
    {
      "type": "Feature",
      "properties": {
        "norad_id": 24946,
        "name": "IRIDIUM 33",
        "group": "iridium-33-debris",
        "lat": 40.45598865136675,
        "lon": -119.16772959688377,
        "alt_km": 766.6288543868395,
        "timestamp": "2025-12-22T23:36:21.100189+00:00",
        "meta_object_name": "IRIDIUM 33",
        "meta_object_id": "1997-051C",
        "meta_epoch": "2025-12-22T04:33:00.643392",
        "meta_mean_motion": 14.35043647,
        "meta_eccentricity": 0.00081627,
        "meta_inclination": 86.3861,
        "meta_ra_of_asc_node": 64.2549,
        "meta_arg_of_pericenter": 169.1562,
        "meta_mean_anomaly": 190.9812,
        "meta_ephemeris_type": 0,
        "meta_classification_type": "U",
        "meta_norad_cat_id": 24946,
        "meta_element_set_no": 999,
        "meta_rev_at_epoch": 47970,
        "meta_bstar": 0.00010632795,
        "meta_mean_motion_dot": 3.23e-06,
        "meta_mean_motion_ddot": 0,
        "tle_line1": "1 24946U 97051C   25356.18959078  .00000323  00000+0  10633-3 0  9998",
        "tle_line2": "2 24946  86.3861  64.2549 0008162 169.1562 190.9812 14.35043647479700"
      },
      "geometry": {
        "type": "Point",
        "coordinates": [
          -119.16772959688377,
          40.45598865136675
        ]
      }
    },
    {
      "type": "Feature",
      "properties": {
        "norad_id": 33773,
        "name": "IRIDIUM 33 DEB",
        "group": "iridium-33-debris",
        "lat": 39.02375631968157,
        "lon": 59.17310908932388,
        "alt_km": 742.7642100163321,
        "timestamp": "2025-12-22T23:36:21.100238+00:00",
        "meta_object_name": "IRIDIUM 33 DEB",
        "meta_object_id": "1997-051L",
        "meta_epoch": "2025-12-22T10:06:48.994560",
        "meta_mean_motion": 14.43276643,
        "meta_eccentricity": 0.00131532,
        "meta_inclination": 86.4001,
        "meta_ra_of_asc_node": 56.4867,
        "meta_arg_of_pericenter": 118.4701,
        "meta_mean_anomaly": 241.7827,
        "meta_ephemeris_type": 0,
        "meta_classification_type": "U",
        "meta_norad_cat_id": 33773,
        "meta_element_set_no": 999,
        "meta_rev_at_epoch": 88487,
        "meta_bstar": 0.00027711312,
        "meta_mean_motion_dot": 9.53e-06,
        "meta_mean_motion_ddot": 0,
        "tle_line1": "1 33773U 97051L   25356.42140040  .00000953  00000+0  27711-3 0  9998",
        "tle_line2": "2 33773  86.4001  56.4867 0013153 118.4701 241.7827 14.43276643884871"
      },
      "geometry": {
        "type": "Point",
        "coordinates": [
          59.17310908932388,
          39.02375631968157
        ]
      }
    },
    {
      "type": "Feature",
      "properties": {
        "norad_id": 33775,
        "name": "IRIDIUM 33 DEB",
        "group": "iridium-33-debris",
        "lat": 56.612885321616446,
        "lon": 50.71863984184346,
        "alt_km": 744.0209597023022,
        "timestamp": "2025-12-22T23:36:21.100255+00:00",
        "meta_object_name": "IRIDIUM 33 DEB",
        "meta_object_id": "1997-051N",
        "meta_epoch": "2025-12-22T10:17:36.055392",
        "meta_mean_motion": 14.41488239,
        "meta_eccentricity": 0.0015141,
        "meta_inclination": 86.3626,
        "meta_ra_of_asc_node": 45.4167,
        "meta_arg_of_pericenter": 125.7241,
        "meta_mean_anomaly": 294.6399,
        "meta_ephemeris_type": 0,
        "meta_classification_type": "U",
        "meta_norad_cat_id": 33775,
        "meta_element_set_no": 999,
        "meta_rev_at_epoch": 88280,
        "meta_bstar": 0.00029191052,
        "meta_mean_motion_dot": 9.68e-06,
        "meta_mean_motion_ddot": 0,
        "tle_line1": "1 33775U 97051N   25356.42888953  .00000968  00000+0  29191-3 0  9992",
        "tle_line2": "2 33775  86.3626  45.4167 0015141 125.7241 294.6399 14.41488239882801"
      },
      "geometry": {
        "type": "Point",
        "coordinates": [
          50.71863984184346,
          56.612885321616446
        ]
      }
    },
    {
      "type": "Feature",
      "properties": {
        "norad_id": 33776,
        "name": "IRIDIUM 33 DEB",
        "group": "iridium-33-debris",
        "lat": 12.280517318459884,
        "lon": -104.31055138421553,
        "alt_km": 754.756024864655,
        "timestamp": "2025-12-22T23:36:21.100269+00:00",
        "meta_object_name": "IRIDIUM 33 DEB",
        "meta_object_id": "1997-051P",
        "meta_epoch": "2025-12-22T11:11:21.119424",
        "meta_mean_motion": 14.38251763,
        "meta_eccentricity": 0.00154129,
        "meta_inclination": 86.4033,
        "meta_ra_of_asc_node": 76.6912,
        "meta_arg_of_pericenter": 159.4139,
        "meta_mean_anomaly": 211.0921,
        "meta_ephemeris_type": 0,
        "meta_classification_type": "U",
        "meta_norad_cat_id": 33776,
        "meta_element_set_no": 999,
        "meta_rev_at_epoch": 88222,
        "meta_bstar": 0.00026667311,
        "meta_mean_motion_dot": 8.31e-06,
        "meta_mean_motion_ddot": 0,
        "tle_line1": "1 33776U 97051P   25356.46621666  .00000831  00000+0  26667-3 0  9997",
        "tle_line2": "2 33776  86.4033  76.6912 0015412 159.4139 211.0921 14.38251763882226"
      },
      "geometry": {
        "type": "Point",
        "coordinates": [
          -104.31055138421553,
          12.280517318459884
        ]
      }
    },
    {
      "type": "Feature",
      "properties": {
        "norad_id": 33777,
        "name": "IRIDIUM 33 DEB",
        "group": "iridium-33-debris",
        "lat": -56.107340882697855,
        "lon": -143.84170414953635,
        "alt_km": 710.656056153457,
        "timestamp": "2025-12-22T23:36:21.100282+00:00",
        "meta_object_name": "IRIDIUM 33 DEB",
        "meta_object_id": "1997-051Q",
        "meta_epoch": "2025-12-22T09:19:32.657952",
        "meta_mean_motion": 14.55676863,
        "meta_eccentricity": 0.00060003,
        "meta_inclination": 86.3773,
        "meta_ra_of_asc_node": 31.0057,
        "meta_arg_of_pericenter": 207.4263,
        "meta_mean_anomaly": 152.6629,
        "meta_ephemeris_type": 0,
        "meta_classification_type": "U",
        "meta_norad_cat_id": 33777,
        "meta_element_set_no": 999,
        "meta_rev_at_epoch": 88674,
        "meta_bstar": 0.00079019042,
        "meta_mean_motion_dot": 3.472e-05,
        "meta_mean_motion_ddot": 0,
        "tle_line1": "1 33777U 97051Q   25356.38857243  .00003472  00000+0  79019-3 0  9994",
        "tle_line2": "2 33777  86.3773  31.0057 0006000 207.4263 152.6629 14.55676863886744"
      },
      "geometry": {
        "type": "Point",
        "coordinates": [
          -143.84170414953635,
          -56.107340882697855
        ]
      }
    },
    {
      "type": "Feature",
      "properties": {
        "norad_id": 33850,
        "name": "IRIDIUM 33 DEB",
        "group": "iridium-33-debris",
        "lat": 62.4937380741163,
        "lon": 32.83384768114611,
        "alt_km": 741.7371621920538,
        "timestamp": "2025-12-22T23:36:21.100295+00:00",
        "meta_object_name": "IRIDIUM 33 DEB",
        "meta_object_id": "1997-051T",
        "meta_epoch": "2025-12-22T12:27:04.750272",
        "meta_mean_motion": 14.42169167,
        "meta_eccentricity": 0.00131498,
        "meta_inclination": 86.3408,
        "meta_ra_of_asc_node": 25.9743,
        "meta_arg_of_pericenter": 131.7999,
        "meta_mean_anomaly": 39.6329,
        "meta_ephemeris_type": 0,
        "meta_classification_type": "U",
        "meta_norad_cat_id": 33850,
        "meta_element_set_no": 999,
        "meta_rev_at_epoch": 88293,
        "meta_bstar": 0.00036389057,
        "meta_mean_motion_dot": 1.218e-05,
        "meta_mean_motion_ddot": 0,
        "tle_line1": "1 33850U 97051T   25356.51880498  .00001218  00000+0  36389-3 0  9998",
        "tle_line2": "2 33850  86.3408  25.9743 0013149 131.7999  39.6329 14.42169167882930"
      },
      "geometry": {
        "type": "Point",
        "coordinates": [
          32.83384768114611,
          62.4937380741163
        ]
      }
    },
    {
      "type": "Feature",
      "properties": {
        "norad_id": 33853,
        "name": "IRIDIUM 33 DEB",
        "group": "iridium-33-debris",
        "lat": -57.390799349636715,
        "lon": -20.95989193428025,
        "alt_km": 922.5619292556048,
        "timestamp": "2025-12-22T23:36:21.100308+00:00",
        "meta_object_name": "IRIDIUM 33 DEB",
        "meta_object_id": "1997-051W",
        "meta_epoch": "2025-12-22T10:53:52.030752",
        "meta_mean_motion": 13.99110392,
        "meta_eccentricity": 0.02074764,
        "meta_inclination": 86.0002,
        "meta_ra_of_asc_node": 345.5509,
        "meta_arg_of_pericenter": 205.8505,
        "meta_mean_anomaly": 308.872,
        "meta_ephemeris_type": 0,
        "meta_classification_type": "U",
        "meta_norad_cat_id": 33853,
        "meta_element_set_no": 999,
        "meta_rev_at_epoch": 85481,
        "meta_bstar": 0.001219662,
        "meta_mean_motion_dot": 2.14e-05,
        "meta_mean_motion_ddot": 0,
        "tle_line1": "1 33853U 97051W   25356.45407443  .00002140  00000+0  12197-2 0  9994",
        "tle_line2": "2 33853  86.0002 345.5509 0207476 205.8505 308.8720 13.99110392854814"
      },
      "geometry": {
        "type": "Point",
        "coordinates": [
          -20.95989193428025,
          -57.390799349636715
        ]
      }
    }
  ]
}